{
  "type": "FeatureCollection",
  "features": [
    {
      "type": "Feature",
      "properties": {
        "norad_id": 66590,
        "name": "STARLINK-35429",
        "group": "last-30-days",
        "lat": -26.589509178467086,
        "lon": 86.35236320910522,
        "alt_km": 355.30066181560414,
        "timestamp": "2025-12-05T18:53:12.097540+00:00",
        "meta_object_name": "STARLINK-35429",
        "meta_object_id": "2025-270C",
        "meta_epoch": "2025-12-05T06:00:02.000160",
        "meta_mean_motion": 15.74051532,
        "meta_eccentricity": 0.00017453,
        "meta_inclination": 42.9989,
        "meta_ra_of_asc_node": 237.1092,
        "meta_arg_of_pericenter": 275.2855,
        "meta_mean_anomaly": 141.6451,
        "meta_ephemeris_type": 0,
        "meta_classification_type": "U",
        "meta_norad_cat_id": 66590,
        "meta_element_set_no": 999,
        "meta_rev_at_epoch": 330,
        "meta_bstar": -0.014704023,
        "meta_mean_motion_dot": -0.01883591,
        "meta_mean_motion_ddot": 0,
        "tle_line1": "1 66590U 25270C   25339.25002315 -.01883591  00000+0 -14704-1 0  9995",
        "tle_line2": "2 66590  42.9989 237.1092 0001745 275.2855 141.6451 15.74051532  3305"
      },
      "geometry": {
        "type": "Point",
        "coordinates": [
          86.35236320910522,
          -26.589509178467086
        ]
      }
    },
    {
      "type": "Feature",
      "properties": {
        "norad_id": 66591,
        "name": "STARLINK-36058",
        "group": "last-30-days",
        "lat": -28.746921755508826,
        "lon": 89.91661498393577,
        "alt_km": 355.4289615357866,
        "timestamp": "2025-12-05T18:53:12.097553+00:00",
        "meta_object_name": "STARLINK-36058",
        "meta_object_id": "2025-270D",
        "meta_epoch": "2025-12-05T06:00:02.000160",
        "meta_mean_motion": 15.74053017,
        "meta_eccentricity": 0.00017398,
        "meta_inclination": 42.9987,
        "meta_ra_of_asc_node": 237.0996,
        "meta_arg_of_pericenter": 277.759,
        "meta_mean_anomaly": 143.0039,
        "meta_ephemeris_type": 0,
        "meta_classification_type": "U",
        "meta_norad_cat_id": 66591,
        "meta_element_set_no": 999,
        "meta_rev_at_epoch": 319,
        "meta_bstar": -0.014712562,
        "meta_mean_motion_dot": -0.0188464,
        "meta_mean_motion_ddot": 0,
        "tle_line1": "1 66591U 25270D   25339.25002315 -.01884640  00000+0 -14713-1 0  9992",
        "tle_line2": "2 66591  42.9987 237.0996 0001739 277.7590 143.0039 15.74053017  3197"
      },
      "geometry": {
        "type": "Point",
        "coordinates": [
          89.91661498393577,
          -28.746921755508826
        ]
      }
    },
    {
      "type": "Feature",
      "properties": {
        "norad_id": 66592,
        "name": "STARLINK-36066",
        "group": "last-30-days",
        "lat": -29.79032923060479,
        "lon": 91.75420959184297,
        "alt_km": 355.44934402608123,
        "timestamp": "2025-12-05T18:53:12.097563+00:00",
        "meta_object_name": "STARLINK-36066",
        "meta_object_id": "2025-270E",
        "meta_epoch": "2025-12-05T06:00:02.000160",
        "meta_mean_motion": 15.74046486,
        "meta_eccentricity": 0.00017231,
        "meta_inclination": 42.9987,
        "meta_ra_of_asc_node": 237.0948,
        "meta_arg_of_pericenter": 277.3674,
        "meta_mean_anomaly": 145.3184,
        "meta_ephemeris_type": 0,
        "meta_classification_type": "U",
        "meta_norad_cat_id": 66592,
        "meta_element_set_no": 999,
        "meta_rev_at_epoch": 309,
        "meta_bstar": -0.01466734,
        "meta_mean_motion_dot": -0.01879138,
        "meta_mean_motion_ddot": 0,
        "tle_line1": "1 66592U 25270E   25339.25002315 -.01879138  00000+0 -14667-1 0  9997",
        "tle_line2": "2 66592  42.9987 237.0948 0001723 277.3674 145.3184 15.74046486  3094"
      },
      "geometry": {
        "type": "Point",
        "coordinates": [
          91.75420959184297,
          -29.79032923060479
        ]
      }
    },
    {
      "type": "Feature",
      "properties": {
        "norad_id": 66593,
        "name": "STARLINK-36031",
        "group": "last-30-days",
        "lat": -30.80621127883281,
        "lon": 93.6270227888547,
        "alt_km": 355.51394413049456,
        "timestamp": "2025-12-05T18:53:12.097573+00:00",
        "meta_object_name": "STARLINK-36031",
        "meta_object_id": "2025-270F",
        "meta_epoch": "2025-12-05T06:00:02.000160",
        "meta_mean_motion": 15.74043804,
        "meta_eccentricity": 0.00017468,
        "meta_inclination": 42.9988,
        "meta_ra_of_asc_node": 237.0898,
        "meta_arg_of_pericenter": 279.2675,
        "meta_mean_anomaly": 145.3377,
        "meta_ephemeris_type": 0,
        "meta_classification_type": "U",
        "meta_norad_cat_id": 66593,
        "meta_element_set_no": 999,
        "meta_rev_at_epoch": 319,
        "meta_bstar": -0.014658096,
        "meta_mean_motion_dot": -0.01877941,
        "meta_mean_motion_ddot": 0,
        "tle_line1": "1 66593U 25270F   25339.25002315 -.01877941  00000+0 -14658-1 0  9998",
        "tle_line2": "2 66593  42.9988 237.0898 0001746 279.2675 145.3377 15.74043804  3193"
      },
      "geometry": {
        "type": "Point",
        "coordinates": [
          93.6270227888547,
          -30.80621127883281
        ]
      }
    },
    {
      "type": "Feature",
      "properties": {
        "norad_id": 66594,
        "name": "STARLINK-36032",
        "group": "last-30-days",
        "lat": -31.79719129278749,
        "lon": 95.54578020962707,
        "alt_km": 355.49778800625063,
        "timestamp": "2025-12-05T18:53:12.097585+00:00",
        "meta_object_name": "STARLINK-36032",
        "meta_object_id": "2025-270G",
        "meta_epoch": "2025-12-05T06:00:02.000160",
        "meta_mean_motion": 15.74052086,
        "meta_eccentricity": 0.00015872,
        "meta_inclination": 42.9987,
        "meta_ra_of_asc_node": 237.0854,
        "meta_arg_of_pericenter": 274.5611,
        "meta_mean_anomaly": 151.9562,
        "meta_ephemeris_type": 0,
        "meta_classification_type": "U",
        "meta_norad_cat_id": 66594,
        "meta_element_set_no": 999,
        "meta_rev_at_epoch": 293,
        "meta_bstar": -0.014726793,
        "meta_mean_motion_dot": -0.01886013,
        "meta_mean_motion_ddot": 0,
        "tle_line1": "1 66594U 25270G   25339.25002315 -.01886013  00000+0 -14727-1 0  9996",
        "tle_line2": "2 66594  42.9987 237.0854 0001587 274.5611 151.9562 15.74052086  2938"
      },
      "geometry": {
        "type": "Point",
        "coordinates": [
          95.54578020962707,
          -31.79719129278749
        ]
      }
    },
    {
      "type": "Feature",
      "properties": {
        "norad_id": 66595,
        "name": "STARLINK-35711",
        "group": "last-30-days",
        "lat": -32.756048199760464,
        "lon": 97.49839369337856,
        "alt_km": 355.6087915664084,
        "timestamp": "2025-12-05T18:53:12.097596+00:00",
        "meta_object_name": "STARLINK-35711",
        "meta_object_id": "2025-270H",
        "meta_epoch": "2025-12-05T06:00:02.000160",
        "meta_mean_motion": 15.74049094,
        "meta_eccentricity": 0.00016099,
        "meta_inclination": 42.9987,
        "meta_ra_of_asc_node": 237.0794,
        "meta_arg_of_pericenter": 279.0788,
        "meta_mean_anomaly": 149.358,
        "meta_ephemeris_type": 0,
        "meta_classification_type": "U",
        "meta_norad_cat_id": 66595,
        "meta_element_set_no": 999,
        "meta_rev_at_epoch": 330,
        "meta_bstar": -0.014705838,
        "meta_mean_motion_dot": -0.01883495,
        "meta_mean_motion_ddot": 0,
        "tle_line1": "1 66595U 25270H   25339.25002315 -.01883495  00000+0 -14706-1 0  9995",
        "tle_line2": "2 66595  42.9987 237.0794 0001609 279.0788 149.3580 15.74049094  3300"
      },
      "geometry": {
        "type": "Point",
        "coordinates": [
          97.49839369337856,
          -32.756048199760464
        ]
      }
    },
    {
      "type": "Feature",
      "properties": {
        "norad_id": 66596,
        "name": "STARLINK-35811",
        "group": "last-30-days",
        "lat": -33.68890076755103,
        "lon": 99.50620471056534,
        "alt_km": 355.6333634308021,
        "timestamp": "2025-12-05T18:53:12.097605+00:00",
        "meta_object_name": "STARLINK-35811",
        "meta_object_id": "2025-270J",
        "meta_epoch": "2025-12-05T06:00:02.000160",
        "meta_mean_motion": 15.74025221,
        "meta_eccentricity": 0.00012125,
        "meta_inclination": 42.9988,
        "meta_ra_of_asc_node": 237.0755,
        "meta_arg_of_pericenter": 270.668,
        "meta_mean_anomaly": 159.7,
        "meta_ephemeris_type": 0,
        "meta_classification_type": "U",
        "meta_norad_cat_id": 66596,
        "meta_element_set_no": 999,
        "meta_rev_at_epoch": 330,
        "meta_bstar": -0.014480252,
        "meta_mean_motion_dot": -0.01856379,
        "meta_mean_motion_ddot": 0,
        "tle_line1": "1 66596U 25270J   25339.25002315 -.01856379  00000+0 -14480-1 0  9996",
        "tle_line2": "2 66596  42.9988 237.0755 0001212 270.6680 159.7000 15.74025221  3305"
      },
      "geometry": {
        "type": "Point",
        "coordinates": [
          99.50620471056534,
          -33.68890076755103
        ]
      }
    }
  ]
}